{
  "type": "FeatureCollection",
  "features": [
    {
      "type": "Feature",
      "properties": {
        "norad_id": 41330,
        "name": "COSMOS 2514 (751)",
        "group": "glo-ops",
        "lat": 63.23993710308472,
        "lon": 25.86066197298177,
        "alt_km": 19145.919057885796,
        "timestamp": "2025-12-22T22:44:21.236499+00:00",
        "meta_object_name": "COSMOS 2514 (751)",
        "meta_object_id": "2016-008A",
        "meta_epoch": "2025-12-22T08:58:34.020768",
        "meta_mean_motion": 2.13102662,
        "meta_eccentricity": 0.00116863,
        "meta_inclination": 65.1282,
        "meta_ra_of_asc_node": 319.0742,
        "meta_arg_of_pericenter": 220.1085,
        "meta_mean_anomaly": 139.8013,
        "meta_ephemeris_type": 0,
        "meta_classification_type": "U",
        "meta_norad_cat_id": 41330,
        "meta_element_set_no": 999,
        "meta_rev_at_epoch": 7685,
        "meta_bstar": 0,
        "meta_mean_motion_dot": -4e-07,
        "meta_mean_motion_ddot": 0,
        "tle_line1": "1 41330U 16008A   25356.37400487 -.00000040  00000+0  00000+0 0  9993",
        "tle_line2": "2 41330  65.1282 319.0742 0011686 220.1085 139.8013  2.13102662 76857"
      },
      "geometry": {
        "type": "Point",
        "coordinates": [
          25.86066197298177,
          63.23993710308472
        ]
      }
    },
    {
      "type": "Feature",
      "properties": {
        "norad_id": 42939,
        "name": "COSMOS 2522 (752)",
        "group": "glo-ops",
        "lat": -21.40718531672814,
        "lon": 28.885331691771906,
        "alt_km": 19117.904141747415,
        "timestamp": "2025-12-22T22:44:21.236510+00:00",
        "meta_object_name": "COSMOS 2522 (752)",
        "meta_object_id": "2017-055A",
        "meta_epoch": "2025-12-22T05:05:46.710816",
        "meta_mean_motion": 2.13102066,
        "meta_eccentricity": 0.00062992,
        "meta_inclination": 64.0765,
        "meta_ra_of_asc_node": 197.9063,
        "meta_arg_of_pericenter": 223.6863,
        "meta_mean_anomaly": 136.3303,
        "meta_ephemeris_type": 0,
        "meta_classification_type": "U",
        "meta_norad_cat_id": 42939,
        "meta_element_set_no": 999,
        "meta_rev_at_epoch": 6420,
        "meta_bstar": 0,
        "meta_mean_motion_dot": 9.5e-07,
        "meta_mean_motion_ddot": 0,
        "tle_line1": "1 42939U 17055A   25356.21234619  .00000095  00000+0  00000+0 0  9996",
        "tle_line2": "2 42939  64.0765 197.9063 0006299 223.6863 136.3303  2.13102066 64200"
      },
      "geometry": {
        "type": "Point",
        "coordinates": [
          28.885331691771906,
          -21.40718531672814
        ]
      }
    },
    {
      "type": "Feature",
      "properties": {
        "norad_id": 43508,
        "name": "COSMOS 2527 (756)",
        "group": "glo-ops",
        "lat": -47.38339127422836,
        "lon": -70.50622857685772,
        "alt_km": 19112.865182473157,
        "timestamp": "2025-12-22T22:44:21.236521+00:00",
        "meta_object_name": "COSMOS 2527 (756)",
        "meta_object_id": "2018-053A",
        "meta_epoch": "2025-12-22T04:09:24.890400",
        "meta_mean_motion": 2.13102387,
        "meta_eccentricity": 0.0008916,
        "meta_inclination": 65.4774,
        "meta_ra_of_asc_node": 79.8162,
        "meta_arg_of_pericenter": 227.1268,
        "meta_mean_anomaly": 132.8398,
        "meta_ephemeris_type": 0,
        "meta_classification_type": "U",
        "meta_norad_cat_id": 43508,
        "meta_element_set_no": 999,
        "meta_rev_at_epoch": 5850,
        "meta_bstar": 0,
        "meta_mean_motion_dot": -3e-08,
        "meta_mean_motion_ddot": 0,
        "tle_line1": "1 43508U 18053A   25356.17320475 -.00000003  00000+0  00000+0 0  9999",
        "tle_line2": "2 43508  65.4774  79.8162 0008916 227.1268 132.8398  2.13102387 58509"
      },
      "geometry": {
        "type": "Point",
        "coordinates": [
          -70.50622857685772,
          -47.38339127422836
        ]
      }
    },
    {
      "type": "Feature",
      "properties": {
        "norad_id": 43687,
        "name": "COSMOS 2529 (757)",
        "group": "glo-ops",
        "lat": 18.652666860634987,
        "lon": 9.184239338906213,
        "alt_km": 19129.306564779934,
        "timestamp": "2025-12-22T22:44:21.236532+00:00",
        "meta_object_name": "COSMOS 2529 (757)",
        "meta_object_id": "2018-086A",
        "meta_epoch": "2025-12-21T19:13:53.194368",
        "meta_mean_motion": 2.13102139,
        "meta_eccentricity": 0.00069117,
        "meta_inclination": 64.2926,
        "meta_ra_of_asc_node": 198.5821,
        "meta_arg_of_pericenter": 253.6836,
        "meta_mean_anomaly": 106.3102,
        "meta_ephemeris_type": 0,
        "meta_classification_type": "U",
        "meta_norad_cat_id": 43687,
        "meta_element_set_no": 999,
        "meta_rev_at_epoch": 5550,
        "meta_bstar": 0,
        "meta_mean_motion_dot": 9.6e-07,
        "meta_mean_motion_ddot": 0,
        "tle_line1": "1 43687U 18086A   25355.80131012  .00000096  00000+0  00000+0 0  9990",
        "tle_line2": "2 43687  64.2926 198.5821 0006911 253.6836 106.3102  2.13102139 55503"
      },
      "geometry": {
        "type": "Point",
        "coordinates": [
          9.184239338906213,
          18.652666860634987
        ]
      }
    },
    {
      "type": "Feature",
      "properties": {
        "norad_id": 44299,
        "name": "COSMOS 2534 (758)",
        "group": "glo-ops",
        "lat": -55.633135569166484,
        "lon": 153.9240274878888,
        "alt_km": 19114.041791589414,
        "timestamp": "2025-12-22T22:44:21.236543+00:00",
        "meta_object_name": "COSMOS 2534 (758)",
        "meta_object_id": "2019-030A",
        "meta_epoch": "2025-12-21T10:55:51.060576",
        "meta_mean_motion": 2.13102432,
        "meta_eccentricity": 0.00087289,
        "meta_inclination": 64.366,
        "meta_ra_of_asc_node": 198.5992,
        "meta_arg_of_pericenter": 284.1192,
        "meta_mean_anomaly": 304.9695,
        "meta_ephemeris_type": 0,
        "meta_classification_type": "U",
        "meta_norad_cat_id": 44299,
        "meta_element_set_no": 999,
        "meta_rev_at_epoch": 5113,
        "meta_bstar": 0,
        "meta_mean_motion_dot": 9.7e-07,
        "meta_mean_motion_ddot": 0,
        "tle_line1": "1 44299U 19030A   25355.45545209  .00000097  00000+0  00000+0 0  9999",
        "tle_line2": "2 44299  64.3660 198.5992 0008728 284.1192 304.9695  2.13102432 51134"
      },
      "geometry": {
        "type": "Point",
        "coordinates": [
          153.9240274878888,
          -55.633135569166484
        ]
      }
    },
    {
      "type": "Feature",
      "properties": {
        "norad_id": 44850,
        "name": "COSMOS 2544 (759)",
        "group": "glo-ops",
        "lat": -64.70252390406444,
        "lon": 4.88475386024354,
        "alt_km": 19103.740249542763,
        "timestamp": "2025-12-22T22:44:21.236555+00:00",
        "meta_object_name": "COSMOS 2544 (759)",
        "meta_object_id": "2019-088A",
        "meta_epoch": "2025-12-22T02:49:35.423040",
        "meta_mean_motion": 2.13102165,
        "meta_eccentricity": 0.00143115,
        "meta_inclination": 65.4645,
        "meta_ra_of_asc_node": 79.6449,
        "meta_arg_of_pericenter": 250.2994,
        "meta_mean_anomaly": 109.5877,
        "meta_ephemeris_type": 0,
        "meta_classification_type": "U",
        "meta_norad_cat_id": 44850,
        "meta_element_set_no": 999,
        "meta_rev_at_epoch": 4694,
        "meta_bstar": 0,
        "meta_mean_motion_dot": -3e-08,
        "meta_mean_motion_ddot": 0,
        "tle_line1": "1 44850U 19088A   25356.11777110 -.00000003  00000+0  00000+0 0  9995",
        "tle_line2": "2 44850  65.4645  79.6449 0014311 250.2994 109.5877  2.13102165 46944"
      },
      "geometry": {
        "type": "Point",
        "coordinates": [
          4.88475386024354,
          -64.70252390406444
        ]
      }
    },
    {
      "type": "Feature",
      "properties": {
        "norad_id": 45358,
        "name": "COSMOS 2545 (760)",
        "group": "glo-ops",
        "lat": 46.74112024155867,
        "lon": 108.08570978379545,
        "alt_km": 19140.740253028376,
        "timestamp": "2025-12-22T22:44:21.236566+00:00",
        "meta_object_name": "COSMOS 2545 (760)",
        "meta_object_id": "2020-018A",
        "meta_epoch": "2025-12-22T07:31:25.141152",
        "meta_mean_motion": 2.13102698,
        "meta_eccentricity": 0.00113434,
        "meta_inclination": 64.464,
        "meta_ra_of_asc_node": 318.6341,
        "meta_arg_of_pericenter": 250.3607,
        "meta_mean_anomaly": 109.513,
        "meta_ephemeris_type": 0,
        "meta_classification_type": "U",
        "meta_norad_cat_id": 45358,
        "meta_element_set_no": 999,
        "meta_rev_at_epoch": 4489,
        "meta_bstar": 0,
        "meta_mean_motion_dot": -4.2e-07,
        "meta_mean_motion_ddot": 0,
        "tle_line1": "1 45358U 20018A   25356.31348543 -.00000042  00000+0  00000+0 0  9993",
        "tle_line2": "2 45358  64.4640 318.6341 0011343 250.3607 109.5130  2.13102698 44898"
      },
      "geometry": {
        "type": "Point",
        "coordinates": [
          108.08570978379545,
          46.74112024155867
        ]
      }
    }
  ]
}